STARLINK-32291          
1 62442U 24251L   26171.39743669  .00011785  00000+0  40906-3 0  9999
2 62442  53.1587 218.2195 0001150  68.3377 291.7746 15.30224638 83368
STARLINK-32736          
1 62443U 24251M   26171.40482171  .00014583  00000+0  50329-3 0  9999
2 62443  53.1591 218.2718 0000933  82.6651 277.4455 15.30213742 83516
STARLINK-32737          
1 62444U 24251N   26171.31761441  .00080190  00000+0  26445-2 0  9998
2 62444  53.1550 216.3019 0014654  96.0014 264.2657 15.30662066 83696
STARLINK-32683          
1 62445U 24251P   26171.44217310  .00014536  00000+0  44035-3 0  9991
2 62445  53.1581 217.7870 0001141  90.4281 269.6852 15.34411451 83681
STARLINK-32726          
1 62446U 24251Q   26171.41668980 -.00000402  00000+0 -76431-6 0  9999
2 62446  53.1596 217.9543 0001729  88.1813 107.9110 15.34386172  5691
STARLINK-32719          
1 62448U 24251S   26171.42118586  .00008565  00000+0  26432-3 0  9993
2 62448  53.1586 218.2243 0001287  81.3966 278.7183 15.34401495 83505
STARLINK-32723          
1 62449U 24251T   26171.36860950  .00016185  00000+0  48867-3 0  9999
2 62449  53.1586 218.0446 0001047  92.3660 267.7463 15.34429722 83519
STARLINK-32722          
1 62450U 24251U   26171.38476220  .00025822  00000+0  88005-3 0  9992
2 62450  53.1575 218.1390 0001290  77.4999 282.6146 15.30232827 83302
STARLINK-32720          
1 62451U 24251V   26171.31819671  .00027351  00000+0  81717-3 0  9999
2 62451  53.1584 218.4395 0000905  85.9543 274.1563 15.34419441 83292
STARLINK-32656          
1 62452U 24251W   26171.45057272  .00009070  00000+0  27924-3 0  9994
2 62452  53.1576 217.8405 0001168  76.8648 283.2485 15.34402277 83525
STARLINK-32690          
1 62453U 24251X   26171.38197204 -.02303368  00000+0 -95707-1 0  9990
2 62453  53.1600 218.1222 0025231  87.5781 272.8106 15.26762699 83295
ASTRANIS UTILITYSAT     
1 62454U 24252A   26171.07393168 -.00000292  00000+0  00000+0 0  9992
2 62454   9.1367 327.3367 7516399 253.8914  19.1435  1.00282911  5453
NUVIEW ALPHA            
1 62455U 24252B   26171.37551706 -.00000220  00000+0  00000+0 0  9991
2 62455   0.0544  34.8592 0001109  31.8120 254.0224  1.00268481  3859
AGILA                   
1 62456U 24252C   26171.46727757 -.00000186  00000+0  00000+0 0  9994
2 62456   0.0639 122.9722 0001257 336.9984 129.0807  1.00271197  5195
NUVIEW BRAVO            
1 62457U 24252D   26171.37551706 -.00000219  00000+0  00000+0 0  9991
2 62457   0.0743 146.5525 0002084 337.9215 196.1742  1.00271802  3826
SDX01                   
1 62459U 24253A   26171.43128448  .00083475  00000+0  66809-3 0  9991
2 62459  54.9940 332.5521 0000797 208.2584 151.8415 15.70424137 83046
SDX02                   
1 62460U 24253B   26171.43124497  .00082369  00000+0  66064-3 0  9997
2 62460  54.9945 332.5539 0000854 206.1481 153.9518 15.70378699 83036
STARLINK-11518 [DTC]    
1 62462U 24254A   26170.46584192  .00202094  00000+0  15365-2 0  9990
2 62462  43.0019 329.8998 0002553 261.4585  98.5994 15.70899624 85416
STARLINK-11455 [DTC]    
1 62463U 24254B   26171.42489856  .00193107  00000+0  14690-2 0  9993
2 62463  43.0002 324.1938 0002001 268.6094  91.4545 15.70915565 85555
STARLINK-11178 [DTC]    
1 62465U 24254D   26171.47255514  .00144303  00000+0  11081-2 0  9997
2 62465  42.9992 323.6769 0002342 268.4226  91.6374 15.70850041 85405
STARLINK-11506 [DTC]    
1 62466U 24254E   26171.43007932  .00165355  00000+0  12655-2 0  9991
2 62466  43.0005 323.3371 0002417 258.1371 101.9225 15.70860805 85408
STARLINK-11486 [DTC]    
1 62467U 24254F   26171.47786330  .00204652  00000+0  15467-2 0  9990
2 62467  43.0013 323.7168 0003711 276.4175  83.6270 15.71030856 85568
STARLINK-11511 [DTC]    
1 62468U 24254G   26171.13870909  .00193171  00000+0  14707-2 0  9999
2 62468  43.0009 325.4668 0002248 270.9288  89.1322 15.70895728 85516
STARLINK-11505 [DTC]    
1 62469U 24254H   26171.44600743  .00184143  00000+0  14010-2 0  9997
2 62469  43.0001 323.4647 0001885 255.6066 104.4592 15.70941484 85559
STARLINK-11497 [DTC]    
1 62470U 24254J   26171.46193499  .00260300  00000+0  19636-2 0  9995
2 62470  42.9991 323.5934 0001832 267.9059  92.1599 15.70908080 85563
STARLINK-11477 [DTC]    
1 62471U 24254K   26171.44069913  .00144074  00000+0  11058-2 0  9996
2 62471  42.9987 323.4218 0001880 280.0898  79.9757 15.70864846 85552
STARLINK-11500 [DTC]    
1 62472U 24254L   26170.48164335  .00194068  00000+0  14776-2 0  9992
2 62472  42.9996 329.1258 0001904 260.0960  99.9693 15.70892207 84883
STARLINK-11464 [DTC]    
1 62473U 24254M   26171.46724485  .00125285  00000+0  96103-3 0  9990
2 62473  42.9994 323.6339 0002128 297.1352  62.9299 15.70942900 85616
STARLINK-11502 [DTC]    
1 62474U 24254N   26171.45131686  .00209821  00000+0  15898-2 0  9995
2 62474  42.9994 323.5058 0001673 254.8792 105.1890 15.70958734 85569
STARLINK-32657          
1 62475U 24254P   26170.35737703  .00008954  00000+0  33450-3 0  9995
2 62475  43.0001 165.5043 0001282 266.6327  93.4378 15.27582818 83016
