OBJECT_NAME,OBJECT_ID,EPOCH,MEAN_MOTION,ECCENTRICITY,INCLINATION,RA_OF_ASC_NODE,ARG_OF_PERICENTER,MEAN_ANOMALY,EPHEMERIS_TYPE,CLASSIFICATION_TYPE,NORAD_CAT_ID,ELEMENT_SET_NO,REV_AT_EPOCH,BSTAR,MEAN_MOTION_DOT,MEAN_MOTION_DDOT
STARLINK-32291,2024-251L,2026-06-20T09:32:18.530016,15.30224638,.000115,53.1587,218.2195,68.3377,291.7746,0,U,62442,999,8336,.40906E-3,.11785E-3,0
STARLINK-32736,2024-251M,2026-06-20T09:42:56.595744,15.30213742,.0000933,53.1591,218.2718,82.6651,277.4455,0,U,62443,999,8351,.50329E-3,.14583E-3,0
STARLINK-32737,2024-251N,2026-06-20T07:37:21.885024,15.30662066,.0014654,53.1550,216.3019,96.0014,264.2657,0,U,62444,999,8369,.26445E-2,.8019E-3,0
STARLINK-32683,2024-251P,2026-06-20T10:36:43.755840,15.34411451,.0001141,53.1581,217.7870,90.4281,269.6852,0,U,62445,999,8368,.44035E-3,.14536E-3,0
STARLINK-32726,2024-251Q,2026-06-20T10:00:01.998720,15.34386172,.0001729,53.1596,217.9543,88.1813,107.9110,0,U,62446,999,569,-.76431E-6,-.402E-5,0
STARLINK-32719,2024-251S,2026-06-20T10:06:30.458304,15.34401495,.0001287,53.1586,218.2243,81.3966,278.7183,0,U,62448,999,8350,.26432E-3,.8565E-4,0
STARLINK-32723,2024-251T,2026-06-20T08:50:47.860800,15.34429722,.0001047,53.1586,218.0446,92.3660,267.7463,0,U,62449,999,8351,.48867E-3,.16185E-3,0
STARLINK-32722,2024-251U,2026-06-20T09:14:03.454080,15.30232827,.000129,53.1575,218.1390,77.4999,282.6146,0,U,62450,999,8330,.88005E-3,.25822E-3,0
STARLINK-32720,2024-251V,2026-06-20T07:38:12.195744,15.34419441,.0000905,53.1584,218.4395,85.9543,274.1563,0,U,62451,999,8329,.81717E-3,.27351E-3,0
STARLINK-32656,2024-251W,2026-06-20T10:48:49.483008,15.34402277,.0001168,53.1576,217.8405,76.8648,283.2485,0,U,62452,999,8352,.27924E-3,.907E-4,0
STARLINK-32690,2024-251X,2026-06-20T09:10:02.384256,15.26762699,.0025231,53.1600,218.1222,87.5781,272.8106,0,U,62453,999,8329,-.95707E-1,-.2303368E-1,0
ASTRANIS UTILITYSAT,2024-252A,2026-06-20T01:46:27.697152,1.00282911,.7516399,9.1367,327.3367,253.8914,19.1435,0,U,62454,999,545,0,-.292E-5,0
NUVIEW ALPHA,2024-252B,2026-06-20T09:00:44.673984,1.00268481,.0001109,0.0544,34.8592,31.8120,254.0224,0,U,62455,999,385,0,-.22E-5,0
AGILA,2024-252C,2026-06-20T11:12:52.782048,1.00271197,.0001257,0.0639,122.9722,336.9984,129.0807,0,U,62456,999,519,0,-.186E-5,0
NUVIEW BRAVO,2024-252D,2026-06-20T09:00:44.673984,1.00271802,.0002084,0.0743,146.5525,337.9215,196.1742,0,U,62457,999,382,0,-.219E-5,0
SDX01,2024-253A,2026-06-20T10:21:02.979072,15.70424137,.0000797,54.9940,332.5521,208.2584,151.8415,0,U,62459,999,8304,.66809E-3,.83475E-3,0
SDX02,2024-253B,2026-06-20T10:20:59.565408,15.70378699,.0000854,54.9945,332.5539,206.1481,153.9518,0,U,62460,999,8303,.66064E-3,.82369E-3,0
STARLINK-11518 [DTC],2024-254A,2026-06-19T11:10:48.741888,15.70899624,.00025537,43.0019,329.8998,261.4585,98.5994,0,U,62462,999,8541,.15365447E-2,.202094E-2,0
STARLINK-11455 [DTC],2024-254B,2026-06-20T10:11:51.235584,15.70915565,.0002001,43.0002,324.1938,268.6094,91.4545,0,U,62463,999,8555,.1469E-2,.193107E-2,0
STARLINK-11178 [DTC],2024-254D,2026-06-20T11:20:28.764096,15.70850041,.0002342,42.9992,323.6769,268.4226,91.6374,0,U,62465,999,8540,.11081E-2,.144303E-2,0
STARLINK-11506 [DTC],2024-254E,2026-06-20T10:19:18.853248,15.70860805,.0002417,43.0005,323.3371,258.1371,101.9225,0,U,62466,999,8540,.12655E-2,.165355E-2,0
STARLINK-11486 [DTC],2024-254F,2026-06-20T11:28:07.389120,15.71030856,.0003711,43.0013,323.7168,276.4175,83.6270,0,U,62467,999,8556,.15467E-2,.204652E-2,0
STARLINK-11511 [DTC],2024-254G,2026-06-20T03:19:44.465376,15.70895728,.00022484,43.0009,325.4668,270.9288,89.1322,0,U,62468,999,8551,.1470708E-2,.193171E-2,0
STARLINK-11505 [DTC],2024-254H,2026-06-20T10:42:15.041952,15.70941484,.0001885,43.0001,323.4647,255.6066,104.4592,0,U,62469,999,8555,.1401E-2,.184143E-2,0
STARLINK-11497 [DTC],2024-254J,2026-06-20T11:05:11.183136,15.70908080,.0001832,42.9991,323.5934,267.9059,92.1599,0,U,62470,999,8556,.19636E-2,.2603E-2,0
STARLINK-11477 [DTC],2024-254K,2026-06-20T10:34:36.404832,15.70864846,.000188,42.9987,323.4218,280.0898,79.9757,0,U,62471,999,8555,.11058E-2,.144074E-2,0
STARLINK-11500 [DTC],2024-254L,2026-06-19T11:33:33.985440,15.70892207,.00019043,42.9996,329.1258,260.0960,99.9693,0,U,62472,999,8488,.14776109E-2,.194068E-2,0
STARLINK-11464 [DTC],2024-254M,2026-06-20T11:12:49.955040,15.70942900,.0002128,42.9994,323.6339,297.1352,62.9299,0,U,62473,999,8561,.96103E-3,.125285E-2,0
STARLINK-11502 [DTC],2024-254N,2026-06-20T10:49:53.776704,15.70958734,.0001673,42.9994,323.5058,254.8792,105.1890,0,U,62474,999,8556,.15898E-2,.209821E-2,0
STARLINK-32657,2024-254P,2026-06-19T08:34:37.375392,15.27582818,.00012823,43.0001,165.5043,266.6327,93.4378,0,U,62475,999,8301,.33449503E-3,.8954E-4,0
